{
  "type": "FeatureCollection",
  "features": [
    {
      "type": "Feature",
      "properties": {
        "norad_id": 50032,
        "name": "COSMOS 1408 DEB",
        "group": "cosmos-1408-debris",
        "lat": 78.88437150355207,
        "lon": -175.89800684759626,
        "alt_km": 416.8255625492593,
        "timestamp": "2025-12-25T03:55:56.628321+00:00",
        "meta_object_name": "COSMOS 1408 DEB",
        "meta_object_id": "1982-092RU",
        "meta_epoch": "2025-12-24T15:04:46.513632",
        "meta_mean_motion": 15.4580971,
        "meta_eccentricity": 0.0016466,
        "meta_inclination": 82.5629,
        "meta_ra_of_asc_node": 46.3227,
        "meta_arg_of_pericenter": 164.7636,
        "meta_mean_anomaly": 195.4112,
        "meta_ephemeris_type": 0,
        "meta_classification_type": "U",
        "meta_norad_cat_id": 50032,
        "meta_element_set_no": 999,
        "meta_rev_at_epoch": 22787,
        "meta_bstar": 0.0001071,
        "meta_mean_motion_dot": 5.256e-05,
        "meta_mean_motion_ddot": 0,
        "tle_line1": "1 50032U 82092RU  25358.62831613  .00005256  00000+0  10710-3 0  9993",
        "tle_line2": "2 50032  82.5629  46.3227 0016466 164.7636 195.4112 15.45809710227873"
      },
      "geometry": {
        "type": "Point",
        "coordinates": [
          -175.89800684759626,
          78.88437150355207
        ]
      }
    },
    {
      "type": "Feature",
      "properties": {
        "norad_id": 50058,
        "name": "COSMOS 1408 DEB",
        "group": "cosmos-1408-debris",
        "lat": 55.18346387457088,
        "lon": 67.08467777022408,
        "alt_km": 357.80198444681446,
        "timestamp": "2025-12-25T03:55:56.628342+00:00",
        "meta_object_name": "COSMOS 1408 DEB",
        "meta_object_id": "1982-092SW",
        "meta_epoch": "2025-12-24T15:25:02.006976",
        "meta_mean_motion": 15.6481298,
        "meta_eccentricity": 0.0015834,
        "meta_inclination": 82.6118,
        "meta_ra_of_asc_node": 56.8774,
        "meta_arg_of_pericenter": 58.7344,
        "meta_mean_anomaly": 301.5464,
        "meta_ephemeris_type": 0,
        "meta_classification_type": "U",
        "meta_norad_cat_id": 50058,
        "meta_element_set_no": 999,
        "meta_rev_at_epoch": 22990,
        "meta_bstar": 0.00034025,
        "meta_mean_motion_dot": 0.00033436,
        "meta_mean_motion_ddot": 0,
        "tle_line1": "1 50058U 82092SW  25358.64238434  .00033436  00000+0  34025-3 0  9991",
        "tle_line2": "2 50058  82.6118  56.8774 0015834  58.7344 301.5464 15.64812980229904"
      },
      "geometry": {
        "type": "Point",
        "coordinates": [
          67.08467777022408,
          55.18346387457088
        ]
      }
    },
    {
      "type": "Feature",
      "properties": {
        "norad_id": 50404,
        "name": "COSMOS 1408 DEB",
        "group": "cosmos-1408-debris",
        "lat": 73.7718488456917,
        "lon": -5.793123110280273,
        "alt_km": 439.5091248010958,
        "timestamp": "2025-12-25T03:55:56.628356+00:00",
        "meta_object_name": "COSMOS 1408 DEB",
        "meta_object_id": "1982-092ADS",
        "meta_epoch": "2025-12-24T06:52:22.036224",
        "meta_mean_motion": 15.15593278,
        "meta_eccentricity": 0.01671175,
        "meta_inclination": 82.2021,
        "meta_ra_of_asc_node": 203.1965,
        "meta_arg_of_pericenter": 159.1978,
        "meta_mean_anomaly": 201.6165,
        "meta_ephemeris_type": 0,
        "meta_classification_type": "U",
        "meta_norad_cat_id": 50404,
        "meta_element_set_no": 999,
        "meta_rev_at_epoch": 21368,
        "meta_bstar": 0.0036317583,
        "meta_mean_motion_dot": 0.00099565,
        "meta_mean_motion_ddot": 0,
        "tle_line1": "1 50404U 82092ADS 25358.28636616  .00099565  00000+0  36318-2 0  9991",
        "tle_line2": "2 50404  82.2021 203.1965 0167117 159.1978 201.6165 15.15593278213686"
      },
      "geometry": {
        "type": "Point",
        "coordinates": [
          -5.793123110280273,
          73.7718488456917
        ]
      }
    },
    {
      "type": "Feature",
      "properties": {
        "norad_id": 50621,
        "name": "COSMOS 1408 DEB",
        "group": "cosmos-1408-debris",
        "lat": 79.42398487714145,
        "lon": -163.11612150785967,
        "alt_km": 368.7477649989769,
        "timestamp": "2025-12-25T03:55:56.628367+00:00",
        "meta_object_name": "COSMOS 1408 DEB",
        "meta_object_id": "1982-092ALR",
        "meta_epoch": "2025-12-24T04:23:00.556512",
        "meta_mean_motion": 15.57235404,
        "meta_eccentricity": 0.00291233,
        "meta_inclination": 82.5683,
        "meta_ra_of_asc_node": 62.263,
        "meta_arg_of_pericenter": 111.4174,
        "meta_mean_anomaly": 249.0193,
        "meta_ephemeris_type": 0,
        "meta_classification_type": "U",
        "meta_norad_cat_id": 50621,
        "meta_element_set_no": 999,
        "meta_rev_at_epoch": 22428,
        "meta_bstar": 0.00037737815,
        "meta_mean_motion_dot": 0.00028099,
        "meta_mean_motion_ddot": 0,
        "tle_line1": "1 50621U 82092ALR 25358.18264533  .00028099  00000+0  37738-3 0  9998",
        "tle_line2": "2 50621  82.5683  62.2630 0029123 111.4174 249.0193 15.57235404224285"
      },
      "geometry": {
        "type": "Point",
        "coordinates": [
          -163.11612150785967,
          79.42398487714145
        ]
      }
    }
  ]
}